NORAD_CAT_ID,OBJECT_NAME,OBJECT_TYPE,EPOCH,MEAN_MOTION,ECCENTRICITY,INCLINATION,RA_OF_ASC_NODE,ARG_OF_PERICENTER,MEAN_ANOMALY,BSTAR,MEAN_MOTION_DOT,MEAN_MOTION_DDOT,TLE_LINE0,TLE_LINE1,TLE_LINE2,SEMIMAJOR_AXIS,PERIOD,APOGEE,PERIGEE,DECAYED
55742.0,STARLINK-5594,PAYLOAD,2023-11-15 03:42:34,14.98330923,0.000281,70.0005,216.492,272.6319,87.4518,6.4754e-05,6.8e-06,0.0,0 STARLINK-5594,1 55742U 23028B   23319.15456595  .00000680  00000-0  64754-4 0  9990,2 55742  70.0005 216.4920 0002810 272.6319  87.4518 14.98330923 39380,6950.19,96.107,574.008,570.102,0.0
55742.0,STARLINK-5594,PAYLOAD,2023-11-16 03:44:34,14.98345519,0.0002774,70.0,213.967,275.7166,84.3676,-0.00010178,-1.308e-05,0.0,0 STARLINK-5594,1 55742U 23028B   23320.15595492 -.00001308  00000-0 -10178-3 0  9992,2 55742  70.0000 213.9670 0002774 275.7166  84.3676 14.98345519 39537,6950.145,96.106,573.938,570.082,0.0
55742.0,STARLINK-5594,PAYLOAD,2023-11-16 16:33:39,14.98318534,0.0002346,70.0015,212.6199,283.7646,76.3252,0.00021995,2.532e-05,0.0,0 STARLINK-5594,1 55742U 23028B   23320.69003801  .00002532  00000-0  21995-3 0  9996,2 55742  70.0015 212.6199 0002346 283.7646  76.3252 14.98318534 39619,6950.228,96.108,573.724,570.463,0.0
55742.0,STARLINK-5594,PAYLOAD,2023-11-16 22:58:11,14.98366921,0.0002996,70.0008,211.9465,267.9098,92.1718,-0.00060873,-7.356e-05,0.0,0 STARLINK-5594,1 55742U 23028B   23320.95707642 -.00007356  00000-0 -60873-3 0  9998,2 55742  70.0008 211.9465 0002996 267.9098  92.1718 14.98366921 39655,6950.079,96.105,574.026,569.861,0.0
55742.0,STARLINK-5594,PAYLOAD,2023-11-17 02:10:27,14.98350363,0.0002607,70.0012,211.61,268.6162,91.4698,-0.00034265,-4.181e-05,0.0,0 STARLINK-5594,1 55742U 23028B   23321.09059629 -.00004181  00000-0 -34265-3 0  9998,2 55742  70.0012 211.6100 0002607 268.6162  91.4698 14.98350363 39676,6950.13,96.106,573.807,570.183,0.0
55742.0,STARLINK-5594,PAYLOAD,2023-11-17 10:11:07,14.98365655,0.0002991,70.0004,210.7688,269.7559,90.3257,-0.00060854,-7.353e-05,0.0,0 STARLINK-5594,1 55742U 23028B   23321.42438821 -.00007353  00000-0 -60854-3 0  9997,2 55742  70.0004 210.7688 0002991 269.7559  90.3257 14.98365655 39721,6950.083,96.105,574.026,569.869,0.0
55742.0,STARLINK-5594,PAYLOAD,2023-11-17 23:00:12,14.98333102,0.000217,70.001,209.4212,274.5246,85.5665,-1.4369e-05,-2.64e-06,0.0,0 STARLINK-5594,1 55742U 23028B   23321.95847742 -.00000264  00000-0 -14369-4 0  9996,2 55742  70.0010 209.4212 0002170 274.5246  85.5665 14.98333102 39802,6950.183,96.107,573.556,570.54,0.0
55742.0,STARLINK-5594,PAYLOAD,2023-11-18 02:12:28,14.98329323,0.000257,70.0004,209.0849,265.4785,94.608,2.37e-05,1.9e-06,0.0,0 STARLINK-5594,1 55742U 23028B   23322.09199730  .00000190  00000-0  23700-4 0  9994,2 55742  70.0004 209.0849 0002570 265.4785  94.6080 14.98329323 39822,6950.195,96.107,573.846,570.274,0.0
55742.0,STARLINK-5594,PAYLOAD,2023-11-18 10:13:08,14.98333066,0.0002519,69.9999,208.2429,276.0702,84.017,-5.6301e-05,-7.65e-06,0.0,0 STARLINK-5594,1 55742U 23028B   23322.42579755 -.00000765  00000-0 -56301-4 0  9993,2 55742  69.9999 208.2429 0002519 276.0702  84.0170 14.98333066 39874,6950.183,96.107,573.799,570.298,0.0
55742.0,STARLINK-5594,PAYLOAD,2023-11-18 23:02:13,14.98331795,0.0002674,70.0005,206.8972,268.0839,92.0014,5.3596e-05,5.47e-06,0.0,0 STARLINK-5594,1 55742U 23028B   23322.95987474  .00000547  00000-0  53596-4 0  9991,2 55742  70.0005 206.8972 0002674 268.0839  92.0014 14.98331795 39958,6950.187,96.107,573.911,570.194,0.0
55742.0,STARLINK-5594,PAYLOAD,2023-11-19 02:14:29,14.98331269,0.0002832,69.9996,206.5609,270.1366,89.9469,3.9253e-05,3.75e-06,0.0,0 STARLINK-5594,1 55742U 23028B   23323.09339520  .00000375  00000-0  39253-4 0  9993,2 55742  69.9996 206.5609 0002832 270.1366  89.9469 14.98331269 39970,6950.189,96.107,574.022,570.086,0.0
55742.0,STARLINK-5594,PAYLOAD,2023-11-19 10:15:09,14.98330673,0.000269,69.9999,205.7197,270.1193,89.9658,3.701e-05,3.49e-06,0.0,0 STARLINK-5594,1 55742U 23028B   23323.42719598  .00000349  00000-0  37010-4 0  9997,2 55742  69.9999 205.7197 0002690 270.1193  89.9658 14.98330673 40022,6950.191,96.107,573.925,570.186,0.0
55742.0,STARLINK-5594,PAYLOAD,2023-11-19 23:04:13,14.98344392,0.000288,69.9991,204.3727,268.6612,91.4217,0.00017218,1.963e-05,0.0,0 STARLINK-5594,1 55742U 23028B   23323.96126220  .00001963  00000-0  17218-3 0  9990,2 55742  69.9991 204.3727 0002880 268.6612  91.4217 14.98344392 40108,6950.148,96.106,574.015,570.012,0.0
55742.0,STARLINK-5594,PAYLOAD,2023-11-20 00:40:21,14.98335289,0.0003013,69.9987,204.2046,270.5942,89.4872,0.00014408,1.627e-05,0.0,0 STARLINK-5594,1 55742U 23028B   23324.02802815  .00001627  00000-0  14408-3 0  9994,2 55742  69.9987 204.2046 0003013 270.5942  89.4872 14.98335289 40113,6950.177,96.107,574.136,569.947,0.0
55742.0,STARLINK-5594,PAYLOAD,2023-11-20 19:53:58,14.98330912,0.0002756,70.0001,202.1856,269.1872,90.8971,3.5663e-05,3.33e-06,0.0,0 STARLINK-5594,1 55742U 23028B   23324.82915233  .00000333  00000-0  35663-4 0  9991,2 55742  70.0001 202.1856 0002756 269.1872  90.8971 14.98330912 40235,6950.19,96.107,573.971,570.14,0.0
55742.0,STARLINK-5594,PAYLOAD,2023-11-20 21:30:06,14.9833274,0.0002621,69.9996,202.0164,261.5334,98.5528,9.996e-06,2.6e-07,0.0,0 STARLINK-5594,1 55742U 23028B   23324.89591131  .00000026  00000-0  99960-5 0  9995,2 55742  69.9996 202.0164 0002621 261.5334  98.5528 14.98332740 40241,6950.184,96.107,573.871,570.228,0.0
55742.0,STARLINK-5594,PAYLOAD,2023-11-21 08:43:03,14.98326631,0.0002842,69.9987,200.8372,274.3903,85.6931,0.00010371,1.145e-05,0.0,0 STARLINK-5594,1 55742U 23028B   23325.36323251  .00001145  00000-0  10371-3 0  9994,2 55742  69.9987 200.8372 0002842 274.3903  85.6931 14.98326631 40312,6950.203,96.107,574.044,570.093,0.0
55742.0,STARLINK-5594,PAYLOAD,2023-11-21 19:55:59,14.98331714,0.0002651,69.9995,199.6604,267.9186,92.167,-4.9462e-05,-6.83e-06,0.0,0 STARLINK-5594,1 55742U 23028B   23325.83055356 -.00000683  00000-0 -49462-4 0  9996,2 55742  69.9995 199.6604 0002651 267.9186  92.1670 14.98331714 40381,6950.188,96.107,573.895,570.21,0.0
55742.0,STARLINK-5594,PAYLOAD,2023-11-22 02:20:31,14.98343791,0.000246,69.999,198.987,264.0984,95.9895,-0.00019166,-2.38e-05,0.0,0 STARLINK-5594,1 55742U 23028B   23326.09758832 -.00002380  00000-0 -19166-3 0  9997,2 55742  69.9990 198.9870 0002460 264.0984  95.9895 14.98343791 40428,6950.15,96.106,573.725,570.306,0.0
55742.0,STARLINK-5594,PAYLOAD,2023-11-22 19:58:00,14.98332289,0.000279,69.9988,197.1346,267.0212,93.0627,4.5275e-05,4.47e-06,0.0,0 STARLINK-5594,1 55742U 23028B   23326.83194919  .00000447  00000-0  45275-4 0  9990,2 55742  69.9988 197.1346 0002790 267.0212  93.0627 14.98332289 40531,6950.186,96.107,573.99,570.112,0.0
55742.0,STARLINK-5594,PAYLOAD,2023-11-22 21:34:08,14.9833414,0.0002573,69.9991,196.9664,258.5044,101.5827,7.34e-05,7.83e-06,0.0,0 STARLINK-5594,1 55742U 23028B   23326.89870714  .00000783  00000-0  73400-4 0  9994,2 55742  69.9991 196.9664 0002573 258.5044 101.5827 14.98334140 40548,6950.18,96.107,573.833,570.257,0.0
55742.0,STARLINK-5594,PAYLOAD,2023-11-23 00:46:24,14.98335932,0.0002543,69.9991,196.6297,258.0209,102.0665,9.213e-05,1.007e-05,0.0,0 STARLINK-5594,1 55742U 23028B   23327.03222511  .00001007  00000-0  92130-4 0  9998,2 55742  69.9991 196.6297 0002543 258.0209 102.0665 14.98335932 40560,6950.175,96.107,573.807,570.272,0.0
55742.0,STARLINK-5594,PAYLOAD,2023-11-23 20:00:02,14.98322201,0.0002546,69.9993,194.6113,262.7574,97.3296,-2.6191e-05,-4.05e-06,0.0,0 STARLINK-5594,1 55742U 23028B   23327.83335812 -.00000405  00000-0 -26191-4 0  9992,2 55742  69.9993 194.6113 0002546 262.7574  97.3296 14.98322201 40681,6950.217,96.107,573.852,570.312,0.0
55742.0,STARLINK-5594,PAYLOAD,2023-11-23 21:36:10,14.9832042,0.0002304,69.9994,194.442,254.6321,105.4583,-4.4175e-05,-6.2e-06,0.0,0 STARLINK-5594,1 55742U 23028B   23327.90011980 -.00000620  00000-0 -44175-4 0  9998,2 55742  69.9994 194.4420 0002304 254.6321 105.4583 14.98320420 40695,6950.223,96.108,573.689,570.486,0.0
55742.0,STARLINK-5594,PAYLOAD,2023-11-24 00:48:26,14.98318203,0.0002519,69.9992,194.1059,260.4999,99.5875,-6.2548e-05,-8.39e-06,0.0,0 STARLINK-5594,1 55742U 23028B   23328.03364279 -.00000839  00000-0 -62548-4 0  9991,2 55742  69.9992 194.1059 0002519 260.4999  99.5875 14.98318203 40718,6950.229,96.108,573.845,570.344,0.0
55742.0,STARLINK-5594,PAYLOAD,2023-11-24 20:02:02,14.98329372,0.0002958,69.9989,192.0857,272.5914,87.4906,4.4595e-05,4.39e-06,0.0,0 STARLINK-5594,1 55742U 23028B   23328.83475531  .00000439  00000-0  44595-4 0  9999,2 55742  69.9989 192.0857 0002958 272.5914  87.4906 14.98329372 40838,6950.195,96.107,574.116,570.004,0.0
55742.0,STARLINK-5594,PAYLOAD,2023-11-24 21:38:10,14.98334025,0.000277,69.9984,191.916,266.9494,93.1348,-7.9527e-07,-1.02e-06,0.0,0 STARLINK-5594,1 55742U 23028B   23328.90151356 -.00000102  00000-0 -79527-6 0  9997,2 55742  69.9984 191.9160 0002770 266.9494  93.1348 14.98334025 40846,6950.18,96.107,573.971,570.12,0.0
55742.0,STARLINK-5594,PAYLOAD,2023-11-25 00:50:26,14.98334884,0.0002532,69.999,191.5801,262.5775,97.5096,2.0399e-05,1.5e-06,0.0,0 STARLINK-5594,1 55742U 23028B   23329.03503198  .00000150  00000-0  20399-4 0  9999,2 55742  69.9990 191.5801 0002532 262.5775  97.5096 14.98334884 40864,6950.178,96.107,573.803,570.283,0.0
55742.0,STARLINK-5594,PAYLOAD,2023-11-25 21:40:11,14.98330861,0.0002697,69.9992,189.3944,260.7114,99.374,0.00021659,2.492e-05,0.0,0 STARLINK-5594,1 55742U 23028B   23329.90290950  .00002492  00000-0  21659-3 0  9994,2 55742  69.9992 189.3944 0002697 260.7114  99.3740 14.98330861 40999,6950.19,96.107,573.93,570.181,0.0
55742.0,STARLINK-5594,PAYLOAD,2023-11-26 00:52:28,14.98322248,0.0002588,69.9986,189.0552,270.2667,89.8195,0.00010792,1.195e-05,0.0,0 STARLINK-5594,1 55742U 23028B   23330.03643915  .00001195  00000-0  10792-3 0  9998,2 55742  69.9986 189.0552 0002588 270.2667  89.8195 14.98322248 41014,6950.217,96.107,573.881,570.283,0.0
